NORAD_CAT_ID,OBJECT_NAME,OBJECT_TYPE,EPOCH,MEAN_MOTION,ECCENTRICITY,INCLINATION,RA_OF_ASC_NODE,ARG_OF_PERICENTER,MEAN_ANOMALY,BSTAR,MEAN_MOTION_DOT,MEAN_MOTION_DDOT,TLE_LINE0,TLE_LINE1,TLE_LINE2,SEMIMAJOR_AXIS,PERIOD,APOGEE,PERIGEE,DECAYED
49762.0,STARLINK-3195,PAYLOAD,2024-04-04 07:29:37,15.08852344,0.0001378,53.2187,61.1916,91.1817,268.9333,6.8562e-05,8.04e-06,0.0,0 STARLINK-3195,1 49762U 21115AQ  24095.31223847  .00000804  00000-0  68562-4 0  9991,2 49762  53.2187  61.1916 0001378  91.1817 268.9333 15.08852344129349,6917.843,95.437,540.661,538.754,0.0
49762.0,STARLINK-3195,PAYLOAD,2024-04-04 21:48:06,15.08836698,0.000133,53.2173,58.5155,87.101,273.0134,0.00012857,1.759e-05,0.0,0 STARLINK-3195,1 49762U 21115AQ  24095.90840688  .00001759  00000-0  12857-3 0  9999,2 49762  53.2173  58.5155 0001330  87.1010 273.0134 15.08836698130541,6917.89,95.438,540.676,538.835,0.0
49762.0,STARLINK-3195,PAYLOAD,2024-04-05 04:09:38,15.08842101,0.0001349,53.2181,57.3255,90.5978,269.5169,0.00013162,1.808e-05,0.0,0 STARLINK-3195,1 49762U 21115AQ  24096.17336440  .00001808  00000-0  13162-3 0  9990,2 49762  53.2181  57.3255 0001349  90.5978 269.5169 15.08842101129473,6917.874,95.437,540.672,538.806,0.0
49762.0,STARLINK-3195,PAYLOAD,2024-04-05 21:38:53,15.08839413,0.0001429,53.2186,54.0539,94.2212,265.8943,9.7928e-06,-1.32e-06,0.0,0 STARLINK-3195,1 49762U 21115AQ  24096.90200859 -.00000132  00000-0  97928-5 0  9999,2 49762  53.2186  54.0539 0001429  94.2212 265.8943 15.08839413129581,6917.882,95.438,540.736,538.759,0.0
49762.0,STARLINK-3195,PAYLOAD,2024-04-06 04:00:25,15.08841182,0.0001241,53.2182,52.8688,88.4071,271.7063,3.4171e-05,2.56e-06,0.0,0 STARLINK-3195,1 49762U 21115AQ  24097.16696592  .00000256  00000-0  34171-4 0  9997,2 49762  53.2182  52.8688 0001241  88.4071 271.7063 15.08841182130732,6917.877,95.437,540.6,538.883,0.0
49762.0,STARLINK-3195,PAYLOAD,2024-04-06 13:32:44,15.08840172,0.0001251,53.2183,51.0856,87.2343,272.8792,-5.017e-05,-1.086e-05,0.0,0 STARLINK-3195,1 49762U 21115AQ  24097.56440935 -.00001086  00000-0 -50170-4 0  9990,2 49762  53.2183  51.0856 0001251  87.2343 272.8792 15.08840172129682,6917.88,95.438,540.61,538.879,0.0
49762.0,STARLINK-3195,PAYLOAD,2024-04-06 21:29:40,15.08833798,0.0001282,53.218,49.5983,95.4953,264.6185,4.9041e-05,4.93e-06,0.0,0 STARLINK-3195,1 49762U 21115AQ  24097.89561111  .00000493  00000-0  49041-4 0  9990,2 49762  53.2180  49.5983 0001282  95.4953 264.6185 15.08833798130845,6917.899,95.438,540.651,538.877,0.0
49762.0,STARLINK-3195,PAYLOAD,2024-04-07 13:23:31,15.08841338,0.0001328,53.2189,46.6251,93.1679,266.9465,1.9508e-05,2.3e-07,0.0,0 STARLINK-3195,1 49762U 21115AQ  24098.55800881  .00000023  00000-0  19508-4 0  9998,2 49762  53.2189  46.6251 0001328  93.1679 266.9465 15.08841338129833,6917.876,95.437,540.66,538.823,0.0
49762.0,STARLINK-3195,PAYLOAD,2024-04-08 05:17:23,15.08843061,0.0001647,53.2201,43.6511,94.3669,265.7512,-3.6569e-05,-8.7e-06,0.0,0 STARLINK-3195,1 49762U 21115AQ  24099.22041219 -.00000870  00000-0 -36569-4 0  9993,2 49762  53.2201  43.6511 0001647  94.3669 265.7512 15.08843061131041,6917.871,95.437,540.875,538.597,0.0
49762.0,STARLINK-3195,PAYLOAD,2024-04-08 13:14:19,15.08837781,0.0001419,53.22,42.1641,89.8309,270.2846,9.0265e-05,1.149e-05,0.0,0 STARLINK-3195,1 49762U 21115AQ  24099.55161330  .00001149  00000-0  90265-4 0  9997,2 49762  53.2200  42.1641 0001419  89.8309 270.2846 15.08837781129988,6917.887,95.438,540.734,538.771,0.0
49762.0,STARLINK-3195,PAYLOAD,2024-04-09 00:22:00,15.08845536,0.0001467,53.2193,40.0818,93.5662,266.5498,0.00011153,1.488e-05,0.0,0 STARLINK-3195,1 49762U 21115AQ  24100.01528765  .00001488  00000-0  11153-3 0  9994,2 49762  53.2193  40.0818 0001467  93.5662 266.5498 15.08845536130057,6917.863,95.437,540.743,538.714,0.0
49762.0,STARLINK-3195,PAYLOAD,2024-04-09 05:08:09,15.0885106,0.0001453,53.22,39.1904,90.5281,269.5877,0.00015499,2.18e-05,0.0,0 STARLINK-3195,1 49762U 21115AQ  24100.21400306  .00002180  00000-0  15499-3 0  9993,2 49762  53.2200  39.1904 0001453  90.5281 269.5877 15.08851060131199,6917.847,95.437,540.717,538.706,0.0
49762.0,STARLINK-3195,PAYLOAD,2024-04-09 19:26:39,15.0883537,0.0001569,53.22,36.5145,82.2419,277.8752,9.3462e-05,1.2e-05,0.0,0 STARLINK-3195,1 49762U 21115AQ  24100.81017615  .00001200  00000-0  93462-4 0  9995,2 49762  53.2200  36.5145 0001569  82.2419 277.8752 15.08835370131286,6917.895,95.438,540.845,538.674,0.0
49762.0,STARLINK-3195,PAYLOAD,2024-04-10 12:55:53,15.08843105,0.0001299,53.2191,33.2419,84.0542,276.0598,7.8016e-05,9.54e-06,0.0,0 STARLINK-3195,1 49762U 21115AQ  24101.53881182  .00000954  00000-0  78016-4 0  9996,2 49762  53.2191  33.2419 0001299  84.0542 276.0598 15.08843105130283,6917.871,95.437,540.635,538.837,0.0
49762.0,STARLINK-3195,PAYLOAD,2024-04-10 19:17:26,15.08841713,0.0001339,53.22,32.0511,91.9657,268.1488,5.7948e-05,6.34e-06,0.0,0 STARLINK-3195,1 49762U 21115AQ  24101.80377329  .00000634  00000-0  57948-4 0  9995,2 49762  53.2200  32.0511 0001339  91.9657 268.1488 15.08841713130321,6917.875,95.437,540.666,538.814,0.0
49762.0,STARLINK-3195,PAYLOAD,2024-04-11 04:49:44,15.08848922,0.0001491,53.2193,30.2662,93.9169,266.1994,9.934e-05,1.294e-05,0.0,0 STARLINK-3195,1 49762U 21115AQ  24102.20120874  .00001294  00000-0  99340-4 0  9996,2 49762  53.2193  30.2662 0001491  93.9169 266.1994 15.08848922131496,6917.853,95.437,540.75,538.687,0.0
49762.0,STARLINK-3195,PAYLOAD,2024-04-11 12:46:40,15.08843295,0.0001435,53.219,28.7794,94.9964,265.1192,4.8532e-05,4.85e-06,0.0,0 STARLINK-3195,1 49762U 21115AQ  24102.53241157  .00000485  00000-0  48532-4 0  9998,2 49762  53.2190  28.7794 0001435  94.9964 265.1192 15.08843295130433,6917.87,95.437,540.728,538.743,0.0
49762.0,STARLINK-3195,PAYLOAD,2024-04-12 04:40:32,15.08835998,0.0001581,53.2177,25.8064,94.7938,265.3234,6.4531e-05,7.39e-06,0.0,0 STARLINK-3195,1 49762U 21115AQ  24103.19481821  .00000739  00000-0  64531-4 0  9994,2 49762  53.2177  25.8064 0001581  94.7938 265.3234 15.08835998131641,6917.893,95.438,540.851,538.664,0.0
49762.0,STARLINK-3195,PAYLOAD,2024-04-12 22:09:46,15.08842002,0.0001701,53.2192,22.5351,100.6409,259.4775,6.3227e-05,7.18e-06,0.0,0 STARLINK-3195,1 49762U 21115AQ  24103.92345514  .00000718  00000-0  63227-4 0  9991,2 49762  53.2192  22.5351 0001701 100.6409 259.4775 15.08842002130642,6917.874,95.437,540.916,538.563,0.0
49762.0,STARLINK-3195,PAYLOAD,2024-04-13 01:20:32,15.08845411,0.0001615,53.2199,21.9401,103.0318,257.0854,5.4262e-05,5.76e-06,0.0,0 STARLINK-3195,1 49762U 21115AQ  24104.05593275  .00000576  00000-0  54262-4 0  9996,2 49762  53.2199  21.9401 0001615 103.0318 257.0854 15.08845411131772,6917.864,95.437,540.846,538.612,0.0
49762.0,STARLINK-3195,PAYLOAD,2024-04-14 04:22:06,15.08844333,0.0001686,53.2199,16.8848,98.1124,262.0059,8.875e-05,1.125e-05,0.0,0 STARLINK-3195,1 49762U 21115AQ  24105.18201474  .00001125  00000-0  88750-4 0  9998,2 49762  53.2199  16.8848 0001686  98.1124 262.0059 15.08844333131941,6917.867,95.437,540.898,538.566,0.0
49762.0,STARLINK-3195,PAYLOAD,2024-04-14 21:51:20,15.08842206,0.0001647,53.2198,13.6118,104.0448,256.0728,1.6688e-05,-2.2e-07,0.0,0 STARLINK-3195,1 49762U 21115AQ  24105.91065888 -.00000022  00000-0  16688-4 0  9993,2 49762  53.2198  13.6118 0001647 104.0448 256.0728 15.08842206130940,6917.874,95.437,540.878,538.599,0.0
49762.0,STARLINK-3195,PAYLOAD,2024-04-15 01:02:06,15.08847174,0.0001543,53.22,13.0159,104.6954,255.4209,3.7015e-05,3.01e-06,0.0,0 STARLINK-3195,1 49762U 21115AQ  24106.04313388  .00000301  00000-0  37015-4 0  9995,2 49762  53.2200  13.0159 0001543 104.6954 255.4209 15.08847174130964,6917.858,95.437,540.791,538.656,0.0
49762.0,STARLINK-3195,PAYLOAD,2024-04-15 21:42:07,15.08857831,0.0001855,53.22,9.1516,122.3892,237.728,-0.00014216,-2.551e-05,0.0,0 STARLINK-3195,1 49762U 21115AQ  24106.90425313 -.00002551  00000-0 -14216-3 0  9990,2 49762  53.2200   9.1516 0001855 122.3892 237.7280 15.08857831132203,6917.826,95.436,540.974,538.408,0.0
49762.0,STARLINK-3195,PAYLOAD,2024-04-16 10:25:12,15.08850411,0.0001335,53.2203,6.7728,106.2148,253.8991,0.00017441,2.49e-05,0.0,0 STARLINK-3195,1 49762U 21115AQ  24107.43416807  .00002490  00000-0  17441-3 0  9990,2 49762  53.2203   6.7728 0001335 106.2148 253.8991 15.08850411131172,6917.849,95.437,540.637,538.79,0.0
49762.0,STARLINK-3195,PAYLOAD,2024-04-16 21:32:53,15.08863115,0.0001044,53.2182,4.692,102.5555,257.5554,0.00022102,3.234e-05,0.0,0 STARLINK-3195,1 49762U 21115AQ  24107.89783895  .00003234  00000-0  22102-3 0  9991,2 49762  53.2182   4.6920 0001044 102.5555 257.5554 15.08863115131246,6917.81,95.436,540.397,538.953,0.0
49762.0,STARLINK-3195,PAYLOAD,2024-04-17 02:19:01,15.08884942,0.0001426,53.219,3.8062,87.2007,272.9149,0.00054739,8.445e-05,0.0,0 STARLINK-3195,1 49762U 21115AQ  24108.09654606  .00008445  00000-0  54739-3 0  9991,2 49762  53.2190   3.8062 0001426  87.2007 272.9149 15.08884942132386,6917.743,95.435,540.594,538.622,0.0
49762.0,STARLINK-3195,PAYLOAD,2024-04-17 21:23:44,15.08809454,0.0001553,53.2191,0.236,79.8225,280.2942,-0.00017275,-3.034e-05,0.0,0 STARLINK-3195,1 49762U 21115AQ  24108.89148489 -.00003034  00000-0 -17275-3 0  9991,2 49762  53.2191   0.2360 0001553  79.8225 280.2942 15.08809454131397,6917.974,95.439,540.913,538.764,0.0
49762.0,STARLINK-3195,PAYLOAD,2024-04-18 03:45:14,15.08831454,0.0001507,53.2168,359.0499,125.9123,234.2009,-0.00011028,-2.042e-05,0.0,0 STARLINK-3195,1 49762U 21115AQ  24109.15642356 -.00002042  00000-0 -11028-3 0  9991,2 49762  53.2168 359.0499 0001507 125.9123 234.2009 15.08831454132544,6917.907,95.438,540.814,538.729,0.0
49762.0,STARLINK-3195,PAYLOAD,2024-04-18 21:14:32,15.08791745,0.0001219,53.2181,355.7756,101.7938,258.3191,-0.00044601,-7.37e-05,0.0,0 STARLINK-3195,1 49762U 21115AQ  24109.88510209 -.00007370  00000-0 -44601-3 0  9994,2 49762  53.2181 355.7756 0001219 101.7938 258.3191 15.08791745132653,6918.028,95.441,540.736,539.05,0.0
